id,Email,Password,name,street,city,state,phone
1,apaulichce@wiley.com,JbasAAym9,Nintendo,5959 Poplar Ave,Memphis,TN,(901) 261-5079
2,rwhatmancf@miibeian.gov.cn,iyV4RuFdmATt,Microsoft Game Studios,2823 Wilma Rudolph Blvd,Clarksville,TN,(931) 645-8007
3,bcaltuncg@whitehouse.gov,sUcGWLFRFdo,Take-Two Interactive,601 Colonial Rd,Memphis,TN,(901) 685-9240
4,jpeoplesch@economist.com,s4FpCqo4Dc,Sony Computer Entertainment,7255 Interstate Dr,Horn Lake,MS,(662) 349-1585
5,ljergci@answers.com,h6QeNU0TXD,Activision,160 American Ave,Bowling Green,KY,(270) 842-0013
6,dmeineckcj@reference.com,6WCTUcn,Ubisoft,170 Promenade Blvd,Flowood,MS,(601) 919-1415
7,fmansourck@creativecommons.org,5gsM1cxN,Bethesda Softworks,6365 I 55 N,Jackson,MS,(601) 956-1150
8,ksabycl@google.ru,EE06GXZgaa,Electronic Arts,3000 E Highland Dr,Jonesboro,AR,(870) 934-9661
9,mmacalpinecm@squarespace.com,IsPaUeuHt,Sega,6143 U S Highway 98,Hattiesburg,MS,(601) 261-5298
10,fjorrycn@dailymail.co.uk,YnS5pW,SquareSoft,5151 Frederica St,Owensboro,KY,(270) 686-7033
11,ppeartreeco@cargocollective.com,4kHTYwEnKv,Atari,1631 Ring Rd,Elizabethtown,KY,(270) 769-6402
12,rohairecp@nifty.com,j66DJn16wx1V,505 Games,3867 Promenade Pkwy,D'iberville,MS,(228) 233-3301
13,btottmancq@tinyurl.com,BGLNpW8Lip,Capcom,69320 Highway 21,Covington,LA,(985) 871-7093
14,arabbattscr@bloglovin.com,yxhIK0,GT Interactive,2030 Hammond Square Dr,Hammond,LA,(985) 277-3203
15,abergeoncs@etsy.com,AXAfG5,Konami Digital Entertainment,4103 Pecanland Mall Dr,Monroe,LA,(318) 361-3781
16,jgeevesct@pcworld.com,BaTTPh,Sony Computer Entertainment Europe,4500 Veterans Memorial Blvd,Metairie,LA,(504) 888-2184
17,vpeartcu@hhs.gov,F4wKSKAQ,Square Enix,1401 W Esplanade Ave,Kenner,LA,(504) 617-4859
18,pgillbeycv@github.io,ESYquTBUp,LucasArts,1731 Manhattan Blvd,Harvey,LA,(504) 227-2014
19,khanselmancw@last.fm,txqOaMFi54X,Virgin Interactive,2001 Millerville Rd,Baton Rouge,LA,(225) 272-4275
20,pfauntcx@netscape.com,xWBIiQJGZ,Warner Bros. Interactive Entertainment,6885 Siegen Ln,Baton Rouge,LA,(225) 293-0984
21,dbilovuscy@shareasale.com,HQre4I,Universal Interactive,6625 E Lloyd Expy,Evansville,IN,(812) 402-8500
22,agliddercz@boston.com,vyOlKXQZ,Eidos Interactive,4000 1st Ave,Evansville,IN,(812) 426-2218
23,rmacrieried0@tripadvisor.com,w65JDIb,RedOctane,202 Siemers Dr,Cape Girardeau,MO,(573) 339-1778
24,cdumbrilld1@hibu.com,csBZla,Vivendi Games,7311 Jefferson Blvd,Louisville,KY,(502) 964-1053
25,fhinemoord2@creativecommons.org,VJu93vrSD,Enix Corporation,3000 W Deyoung St,Marion,IL,(618) 997-8174
26,cespinozad3@wikimedia.org,wrCMP28J,Namco Bandai Games,3600 Mall Rd,Louisville,KY,(502) 456-6768
27,etealed4@google.ru,hDi93tKNGg3i,Palcom,4640 Taylorsville Rd,Louisville,KY,(502) 493-8717
28,osealyd5@npr.org,jP7KhM,Hasbro Interactive,4174 Westport Rd,Louisville,KY,(502) 992-1039
29,caubind6@house.gov,snOlnRK,THQ,2209 State St,New Albany,IN,(812) 945-5046
30,oserotd7@123-reg.co.uk,SVocAh9V,Fox Interactive,12975 Shelbyville Rd,Louisville,KY,(502) 992-1237
31,jbampkind8@amazonaws.com,vMZ1ZCmB,Acclaim Entertainment,1125 Veterans Pkwy,Clarksville,IN,(812) 284-4524
32,cbroomd9@youku.com,UVBTZQaZg,MTV Games,4101 Towne Center Dr,Louisville,KY,(502) 326-9185
33,ltoeda@buzzfeed.com,Vjs6ScBQ,Disney Interactive Studios,131 West Reynolds Rd,Lexington,KY,(859) 273-9403
34,mblooddb@canalblog.com,y6eCcmq0A,Majesco Entertainment,1940 Pavillon Way,Lexington,KY,(859) 263-7448
35,vhauchdc@nbcnews.com,zZzcP03,Codemasters,3970 SW Archer Rd,Gainesville,FL,(352) 376-5260
36,kkemmerdd@de.vu,Rm8AgGsdLosv,Red Orb,250 NW 13th St,Gainesville,FL,(352) 415-4861
37,truoffde@stanford.edu,Ae66A85sRe,Level 5,1727 Martin Luther King Jr Blvd,Houma,LA,(985) 223-2575
38,nbeadf@ft.com,SgriZNmlUMnN,Arena Entertainment,3225 Louisiana Ave,Lafayette,LA,(337) 769-7515
39,bstoyledg@wiley.com,lwTNeyV0Tn9l,Midway Games,4313 Ambassador Caffery Pkwy,Lafayette,LA,(337) 406-2536
40,shornbuckledh@amazon.com,TsuT5Tb,JVC,9525 Crosshill Blvd,Jacksonville,FL,(904) 248-4366
41,rhubballdi@com.com,xUsDdsh,Deep Silver,200 Glynn Isle,Brunswick,GA,(912) 261-4868
42,juccelidj@gnu.org,TWAx9PDl,989 Studios,6331 Roosevelt Blvd,Jacksonville,FL,(904) 596-1065
43,psongistdk@trellian.com,vzh2PKAX7s8,NCSoft,463737 State Rd 200,Yulee,FL,(904) 548-1240
44,mdoubravadl@instagram.com,bxuMfn,UEP Systems,1490 County Rd 220,Orange Park,FL,(904) 278-8652
45,goverstalldm@geocities.com,rNLajZL7,Parker Bros.,10490 San Jose Blvd,Jacksonville,FL,(904) 268-4334
46,fpondjonesdn@seesaa.net,IfnWj6ow,Maxis,444 Monument Rd,Jacksonville,FL,(904) 721-4909
47,habrahartdo@unc.edu,iCz90AB,Imagic,4567 River City Dr,Jacksonville,FL,(904) 596-0020
48,mgwynethdp@umich.edu,8JCjmlJKIeS,Tecmo Koei,9041 Southside Blvd,Jacksonville,FL,(904) 464-0043
49,irupertodq@about.me,cwvnkrzGRywv,Valve Software,2000 SW College Rd,Ocala,FL,(352) 629-1333
50,lhanselaz@paypal.com,ANNo9nV4Wy3b,ASCII Entertainment,12300 Seal Beach Blvd,Seal Beach,CA,(562) 596-9887
51,gshawb0@exblog.jp,gu2cIPwSlsBW,Mindscape,1240 Broadway,Chula Vista,CA,(619) 425-3850
52,galderseyb1@dailymail.co.uk,ACPhV2,Infogrames,5700 Firestone Blvd,South Gate,CA,(562) 806-2911
53,orennoldsb2@diigo.com,z3SwK7FerL2,Unknown,2195 Glendale Galleria,Glendale,CA,(818) 334-1400
54,astrankb3@prnewswire.com,F7ePhrApUBW,Square,5760 E 7TH ST,Long Beach,CA,(562) 343-9142
55,flegalleb4@slashdot.org,tdfNAC,Valve,2270 N Bellflower Blvd,Long Beach,CA,(562) 493-5411
56,gpetersb5@cargocollective.com,dXP8pzxdNDe,Activision Value,141 Lakewood Center Mall,Lakewood,CA,(562) 894-0019
57,lmurcuttb6@comsenz.com,lCLZyownNFp,Banpresto,950 E 33rd St,Signal Hill,CA,(562) 427-7751
58,jdodgeb7@xinhuanet.com,OzU4zIh,D3Publisher,6750 Cherry Ave,Long Beach,CA,(562) 295-2971
59,pgouchb8@hp.com,k5J1oL3s,Oxygen Interactive,1621 S Alameda St,Compton,CA,(310) 735-0096
60,fmoohanb9@csmonitor.com,4bI042Bu9Vyv,Red Storm Entertainment,1701 N Gaffey St,San Pedro,CA,(310) 507-6289
61,wswaileba@qq.com,v2XRgltm,Video System,20700 S Avalon Blvd,Carson,CA,(310) 819-3011
62,hmanwellbb@pinterest.com,d8AVFe8qw,Hello Games,651 W Sepulveda Blvd,Carson,CA,(310) 507-0020
63,mcawtherabc@sogou.com,CPxcJn73JUuJ,Global Star,2169 W Redondo Beach Blvd,Gardena,CA,(310) 327-0762
64,eclooneybd@thetimes.co.uk,ZbEfJc,Gotham Games,3433 Sepulveda Blvd,Torrance,CA,(310) 214-1561
65,bdudbridgebe@t.co,ZN5mBJ,Westwood Studios,2700 W 120th St,Hawthorne,CA,(323) 492-1000
66,ericardoubf@networksolutions.com,ps7aZJ,GungHo,735 S Figueroa St,Los Angeles,CA,(213) 330-4543
67,wlamanbybg@cnn.com,CE8kT8rD,Crave Entertainment,1601 Kingsdale Ave,Redondo Beach,CA,(310) 750-0003
68,dlepiscopibh@nymag.com,ngSIHk,Hudson Soft,3131 S HOOVER ST STE 1910,LOS ANGELES,CA,(213) 275-3149
69,awybournebi@flickr.com,YMnwwHrFR,Coleco,3471 W Century Blvd,Inglewood,CA,(310) 677-2436
70,eboolebj@vistaprint.com,u1D7mbz,Rising Star Games,620 S Virgil Ave Ste 100,Los Angeles,CA,(213) 296-3712
71,frobbbk@zimbio.com,O2fE5mFL,Atlus,1200 N Sepulveda Blvd,Manhattan Beach,CA,(310) 546-5601
72,uhardsbl@t-online.de,wixs6VXb51LZ,TDK Mediactive,3535 S La Cienega Blvd,Los Angeles,CA,(310) 895-1131
,,,,,,,
,,,,,,,
,,,,,,,
,,,,,,,
,,,,,,,
,,,,,,,
,,,,,,,
,,,,,,,
,,,,,,,
,,,,,,,
,,,,,,,
,,,,,,,
,,,,,,,
,,,,,,,
,,,,,,,
,,,,,,,
,,,,,,,
,,,,,,,
,,,,,,,
,,,,,,,
,,,,,,,
,,,,,,,
,,,,,,,
,,,,,,,
,,,,,,,
,,,,,,,
,,,,,,,
,,,,,,,
,,,,,,,
,,,,,,,
,,,,,,,
,,,,,,,
,,,,,,,
,,,,,,,
,,,,,,,
,,,,,,,
,,,,,,,
,,,,,,,
,,,,,,,
,,,,,,,
,,,,,,,
,,,,,,,
,,,,,,,
,,,,,,,
,,,,,,,
,,,,,,,
,,,,,,,
,,,,,,,
,,,,,,,
,,,,,,,
,,,,,,,
,,,,,,,
,,,,,,,
,,,,205 Soscol Ave,Napa,CA,(707) 224-1058
,,,,4000 Bel Aire Plz,Napa,CA,(707) 225-3016
,,,,1400 Fitzgerald Dr,Pinole,CA,(510) 222-0558
,,,,15555 E 14th St,San Leandro,CA,(510) 276-2699
,,,,2187 Shattuck Ave,Berkeley,CA,(510) 982-3726
,,,,19661 Hesperian Blvd,Hayward,CA,(510) 731-0001
,,,,1414 University Ave,Berkeley,CA,(510) 542-5346
,,,,2499 Whipple Rd,Hayward,CA,(510) 471-9166
,,,,39201 Fremont Blvd,Fremont,CA,(510) 795-6305
,,,,4500 Macdonald Ave,Richmond,CA,(510) 253-1000
,,,,1057 Eastshore Hwy,Albany,CA,(510) 982-0512
,,,,1555 40th Street,Emeryville,CA,(510) 285-0559
,,,,43950 Pacific Commons Blvd,Fremont,CA,(510) 771-1616
,,,,2700 Fifth Street,Alameda,CA,(510) 214-0931
,,,,2155 Morrill Ave,San Jose,CA,(408) 946-6791