id,Email,Password,name,street,city,state,phone
1,apaulichce@wiley.com,JbasAAym9,Zushi Games,5959 Poplar Ave,Memphis,TN,(901) 261-5079
2,rwhatmancf@miibeian.gov.cn,iyV4RuFdmATt,Zoo Games,2823 Wilma Rudolph Blvd,Clarksville,TN,(931) 645-8007
3,bcaltuncg@whitehouse.gov,sUcGWLFRFdo,Zoo Digital Publishing,601 Colonial Rd,Memphis,TN,(901) 685-9240
4,jpeoplesch@economist.com,s4FpCqo4Dc,Zenrin,7255 Interstate Dr,Horn Lake,MS,(662) 349-1585
5,ljergci@answers.com,h6QeNU0TXD,Yumedia,160 American Ave,Bowling Green,KY,(270) 842-0013
6,dmeineckcj@reference.com,6WCTUcn,Yuke's,170 Promenade Blvd,Flowood,MS,(601) 919-1415
7,fmansourck@creativecommons.org,5gsM1cxN,Yeti,6365 I 55 N,Jackson,MS,(601) 956-1150
8,ksabycl@google.ru,EE06GXZgaa,Yamasa Entertainment,3000 E Highland Dr,Jonesboro,AR,(870) 934-9661
9,mmacalpinecm@squarespace.com,IsPaUeuHt,Yacht Club Games,6143 U S Highway 98,Hattiesburg,MS,(601) 261-5298
10,fjorrycn@dailymail.co.uk,YnS5pW,Xseed Games,5151 Frederica St,Owensboro,KY,(270) 686-7033
11,ppeartreeco@cargocollective.com,4kHTYwEnKv,XS Games,1631 Ring Rd,Elizabethtown,KY,(270) 769-6402
12,rohairecp@nifty.com,j66DJn16wx1V,Xplosiv,3867 Promenade Pkwy,D'iberville,MS,(228) 233-3301
13,btottmancq@tinyurl.com,BGLNpW8Lip,Xing Entertainment,69320 Highway 21,Covington,LA,(985) 871-7093
14,arabbattscr@bloglovin.com,yxhIK0,Xicat Interactive,2030 Hammond Square Dr,Hammond,LA,(985) 277-3203
15,abergeoncs@etsy.com,AXAfG5,Wizard Video Games,4103 Pecanland Mall Dr,Monroe,LA,(318) 361-3781
16,jgeevesct@pcworld.com,BaTTPh,White Park Bay Software,4500 Veterans Memorial Blvd,Metairie,LA,(504) 888-2184
17,vpeartcu@hhs.gov,F4wKSKAQ,Westwood Studios,1401 W Esplanade Ave,Kenner,LA,(504) 617-4859
18,pgillbeycv@github.io,ESYquTBUp,WayForward Technologies,1731 Manhattan Blvd,Harvey,LA,(504) 227-2014
19,khanselmancw@last.fm,txqOaMFi54X,Warp,2001 Millerville Rd,Baton Rouge,LA,(225) 272-4275
20,pfauntcx@netscape.com,xWBIiQJGZ,Warner Bros. Interactive Entertainment,6885 Siegen Ln,Baton Rouge,LA,(225) 293-0984
21,dbilovuscy@shareasale.com,HQre4I,Wargaming.net,6625 E Lloyd Expy,Evansville,IN,(812) 402-8500
22,agliddercz@boston.com,vyOlKXQZ,Warashi,4000 1st Ave,Evansville,IN,(812) 426-2218
23,rmacrieried0@tripadvisor.com,w65JDIb,Wanadoo,202 Siemers Dr,Cape Girardeau,MO,(573) 339-1778
24,cdumbrilld1@hibu.com,csBZla,Vivendi Games,7311 Jefferson Blvd,Louisville,KY,(502) 964-1053
25,fhinemoord2@creativecommons.org,VJu93vrSD,Rain Games,3000 W Deyoung St,Marion,IL,(618) 997-8174
26,cespinozad3@wikimedia.org,wrCMP28J,Rage Software,3600 Mall Rd,Louisville,KY,(502) 456-6768
27,etealed4@google.ru,hDi93tKNGg3i,Quintet,4640 Taylorsville Rd,Louisville,KY,(502) 493-8717
28,osealyd5@npr.org,jP7KhM,Quinrose,4174 Westport Rd,Louisville,KY,(502) 992-1039
29,caubind6@house.gov,snOlnRK,Quest,2209 State St,New Albany,IN,(812) 945-5046
30,oserotd7@123-reg.co.uk,SVocAh9V,Quelle,12975 Shelbyville Rd,Louisville,KY,(502) 992-1237
31,jbampkind8@amazonaws.com,vMZ1ZCmB,Psygnosis,1125 Veterans Pkwy,Clarksville,IN,(812) 284-4524
32,cbroomd9@youku.com,UVBTZQaZg,Prototype,4101 Towne Center Dr,Louisville,KY,(502) 326-9185
33,ltoeda@buzzfeed.com,Vjs6ScBQ,Princess Soft,131 West Reynolds Rd,Lexington,KY,(859) 273-9403
34,mblooddb@canalblog.com,y6eCcmq0A,PQube,1940 Pavillon Way,Lexington,KY,(859) 263-7448
35,vhauchdc@nbcnews.com,zZzcP03,Pow,3970 SW Archer Rd,Gainesville,FL,(352) 376-5260
36,kkemmerdd@de.vu,Rm8AgGsdLosv,PopTop Software,250 NW 13th St,Gainesville,FL,(352) 415-4861
37,truoffde@stanford.edu,Ae66A85sRe,Popcorn Arcade,1727 Martin Luther King Jr Blvd,Houma,LA,(985) 223-2575
38,nbeadf@ft.com,SgriZNmlUMnN,PopCap Games,3225 Louisiana Ave,Lafayette,LA,(337) 769-7515
39,bstoyledg@wiley.com,lwTNeyV0Tn9l,Pony Canyon,4313 Ambassador Caffery Pkwy,Lafayette,LA,(337) 406-2536
40,shornbuckledh@amazon.com,TsuT5Tb,PM Studios,9525 Crosshill Blvd,Jacksonville,FL,(904) 248-4366
41,rhubballdi@com.com,xUsDdsh,Plenty,200 Glynn Isle,Brunswick,GA,(912) 261-4868
42,juccelidj@gnu.org,TWAx9PDl,PlayV,6331 Roosevelt Blvd,Jacksonville,FL,(904) 596-1065
43,psongistdk@trellian.com,vzh2PKAX7s8,Playmore,463737 State Rd 200,Yulee,FL,(904) 548-1240
44,mdoubravadl@instagram.com,bxuMfn,Playmates,1490 County Rd 220,Orange Park,FL,(904) 278-8652
45,goverstalldm@geocities.com,rNLajZL7,Playlogic Game Factory,10490 San Jose Blvd,Jacksonville,FL,(904) 268-4334
46,fpondjonesdn@seesaa.net,IfnWj6ow,Play It,444 Monument Rd,Jacksonville,FL,(904) 721-4909
47,habrahartdo@unc.edu,iCz90AB,Pioneer LDC,4567 River City Dr,Jacksonville,FL,(904) 596-0020
48,mgwynethdp@umich.edu,8JCjmlJKIeS,Pinnacle,9041 Southside Blvd,Jacksonville,FL,(904) 464-0043
49,irupertodq@about.me,cwvnkrzGRywv,Piacci,2000 SW College Rd,Ocala,FL,(352) 629-1333